[{"OBJECT_NAME":"STARLINK-3623","OBJECT_ID":"2022-017E","EPOCH":"2026-03-09T22:24:27.189792","MEAN_MOTION":15.08844213,"ECCENTRICITY":0.00013745,"INCLINATION":53.2193,"RA_OF_ASC_NODE":338.0263,"ARG_OF_PERICENTER":78.8067,"MEAN_ANOMALY":281.3079,"EPHEMERIS_TYPE":0,"CLASSIFICATION_TYPE":"U","NORAD_CAT_ID":51772,"ELEMENT_SET_NO":999,"REV_AT_EPOCH":22263,"BSTAR":-4.0019383e-5,"MEAN_MOTION_DOT":-9.25e-6,"MEAN_MOTION_DDOT":0},{"OBJECT_NAME":"CZ-4B DEB","OBJECT_ID":"2004-035K","EPOCH":"2026-03-08T06:51:30.377664","MEAN_MOTION":15.09293825,"ECCENTRICITY":0.00031468,"INCLINATION":97.5843,"RA_OF_ASC_NODE":91.2716,"ARG_OF_PERICENTER":107.6302,"MEAN_ANOMALY":252.527,"EPHEMERIS_TYPE":0,"CLASSIFICATION_TYPE":"U","NORAD_CAT_ID":29043,"ELEMENT_SET_NO":999,"REV_AT_EPOCH":10418,"BSTAR":0.00031897975,"MEAN_MOTION_DOT":5.021e-5,"MEAN_MOTION_DDOT":0}]
